{"type":"FeatureCollection","features":[{"type":"Feature","properties":{"adm4_name":"Arenoso","adm4_name1":null,"adm4_name2":null,"adm4_name3":null,"adm4_pcode":"DO01010201","adm3_name":"Municipio Arenoso","adm3_name1":null,"adm3_name2":null,"adm3_name3":null,"adm3_pcode":"DO010102","adm2_name":"Provincia Duarte","adm2_name1":null,"adm2_name2":null,"adm2_name3":null,"adm2_pcode":"DO0101","adm1_name":"Región Cibao Nordeste","adm1_name1":null,"adm1_name2":null,"adm1_name3":null,"adm1_pcode":"DO01","adm0_name":"República Dominicana","adm0_name1":null,"adm0_name2":null,"adm0_name3":null,"adm0_pcode":"DO","valid_on":"2021-06-29","valid_to":null,"area_sqkm":7.82653928,"version":"v01","lang":"es","lang1":null,"lang2":null,"lang3":null,"adm0_en":"Dominican Republic","adm4_ref_name":"Arenoso","center_lat":19.17935791,"center_lon":-69.82647645},"geometry":{"type":"Polygon","coordinates":[[[-69.86883537899996,19.164347452000072],[-69.81503863799992,19.164347452000072],[-69.81503863799992,19.194372992000183],[-69.86883537899996,19.194372992000183],[-69.86883537899996,19.164347452000072]]]}},{"type":"Feature","properties":{"adm4_name":"Las Coles (D.M.)","adm4_name1":null,"adm4_name2":null,"adm4_name3":null,"adm4_pcode":"DO01010202","adm3_name":"Municipio Arenoso","adm3_name1":null,"adm3_name2":null,"adm3_name3":null,"adm3_pcode":"DO010102","adm2_name":"Provincia Duarte","adm2_name1":null,"adm2_name2":null,"adm2_name3":null,"adm2_pcode":"DO0101","adm1_name":"Región Cibao Nordeste","adm1_name1":null,"adm1_name2":null,"adm1_name3":null,"adm1_pcode":"DO01","adm0_name":"República Dominicana","adm0_name1":null,"adm0_name2":null,"adm0_name3":null,"adm0_pcode":"DO","valid_on":"2021-06-29","valid_to":null,"area_sqkm":90.79139288,"version":"v01","lang":"es","lang1":null,"lang2":null,"lang3":null,"adm0_en":"Dominican Republic","adm4_ref_name":"Las Coles (D.M.)","center_lat":19.18225533,"center_lon":-69.72847926},"geometry":{"type":"Polygon","coordinates":[[[-69.82240778599999,19.13891623100011],[-69.64967211499999,19.13891623100011],[-69.64967211499999,19.225690557000178],[-69.82240778599999,19.225690557000178],[-69.82240778599999,19.13891623100011]]]}},{"type":"Feature","properties":{"adm4_name":"El Aguacate (D.M.)","adm4_name1":null,"adm4_name2":null,"adm4_name3":null,"adm4_pcode":"DO01010203","adm3_name":"Municipio Arenoso","adm3_name1":null,"adm3_name2":null,"adm3_name3":null,"adm3_pcode":"DO010102","adm2_name":"Provincia Duarte","adm2_name1":null,"adm2_name2":null,"adm2_name3":null,"adm2_pcode":"DO0101","adm1_name":"Región Cibao Nordeste","adm1_name1":null,"adm1_name2":null,"adm1_name3":null,"adm1_pcode":"DO01","adm0_name":"República Dominicana","adm0_name1":null,"adm0_name2":null,"adm0_name3":null,"adm0_pcode":"DO","valid_on":"2021-06-29","valid_to":null,"area_sqkm":46.20122504,"version":"v01","lang":"es","lang1":null,"lang2":null,"lang3":null,"adm0_en":"Dominican Republic","adm4_ref_name":"El Aguacate (D.M.)","center_lat":19.20296899,"center_lon":-69.82314714},"geometry":{"type":"Polygon","coordinates":[[[-69.88710329399998,19.167021480000187],[-69.76804929399992,19.167021480000187],[-69.76804929399992,19.238792971000123],[-69.88710329399998,19.238792971000123],[-69.88710329399998,19.167021480000187]]]}}]}
