{"type":"FeatureCollection","features":[{"type":"Feature","properties":{"iso2":"DO","iso3":"DOM","adm0_name":"Dominican Republic","adm0_name1":"República Dominicana","adm0_name2":null,"adm0_name3":null,"adm0_pcode":"DO","valid_on":"2021-06-29","valid_to":null,"version":"v01","area_sqkm":48297.55445142,"lang":"en","lang1":"es","lang2":null,"lang3":null,"adm0_ref_name1":"Republica Dominicana (la)","center_lat":18.76435012,"center_lon":-70.12256222},"geometry":{"type":"Polygon","coordinates":[[[-72.01147239799991,17.470163046000096],[-68.32295919699999,17.470163046000096],[-68.32295919699999,19.932125750000125],[-72.01147239799991,19.932125750000125],[-72.01147239799991,17.470163046000096]]]}}]}
