{"type":"FeatureCollection","features":[{"type":"Feature","properties":{"adm3_name":"Municipio Arenoso","adm3_name1":null,"adm3_name2":null,"adm3_name3":null,"adm3_pcode":"DO010102","adm2_name":"Provincia Duarte","adm2_name1":null,"adm2_name2":null,"adm2_name3":null,"adm2_pcode":"DO0101","adm1_name":"Región Cibao Nordeste","adm1_name1":null,"adm1_name2":null,"adm1_name3":null,"adm1_pcode":"DO01","adm0_name":"República Dominicana","adm0_name1":null,"adm0_name2":null,"adm0_name3":null,"adm0_pcode":"DO","valid_on":"2021-06-29","valid_to":null,"area_sqkm":144.81915719,"version":"v01","lang":"es","lang1":null,"lang2":null,"lang3":null,"adm0_en":"Dominican Republic","adm3_ref_name":"Municipio Arenoso","center_lat":19.18883994,"center_lon":-69.76978079},"geometry":{"type":"Polygon","coordinates":[[[-69.88710329399998,19.13891623100011],[-69.64967211499999,19.13891623100011],[-69.64967211499999,19.238792971000123],[-69.88710329399998,19.238792971000123],[-69.88710329399998,19.13891623100011]]]}}]}
