{"type":"FeatureCollection","features":[{"type":"Feature","properties":{"adm2_name":"Provincia Duarte","adm2_name1":null,"adm2_name2":null,"adm2_name3":null,"adm2_pcode":"DO0101","adm1_name":"Región Cibao Nordeste","adm1_name1":null,"adm1_name2":null,"adm1_name3":null,"adm1_pcode":"DO01","adm0_name":"República Dominicana","adm0_name1":null,"adm0_name2":null,"adm0_name3":null,"adm0_pcode":"DO","valid_on":"2021-06-29","valid_to":null,"area_sqkm":1650.25816461,"version":"v01","lang":"es","lang1":null,"lang2":null,"lang3":null,"adm0_en":"Dominican Republic","adm2_ref_name":"Provincia Duarte","center_lat":19.28335393,"center_lon":-70.18800301},"geometry":{"type":"Polygon","coordinates":[[[-70.3710362519999,19.044036817000176],[-69.64967211499999,19.044036817000176],[-69.64967211499999,19.522664402000146],[-70.3710362519999,19.522664402000146],[-70.3710362519999,19.044036817000176]]]}}]}
